ASTROCAST-0403          
1 55111U 23001DG  26068.82333059  .00013959  00000+0  51317-3 0  9990
2 55111  97.5604 161.3228 0004771 338.0704  22.0330 15.28004949129377
STARLINK-32920          
1 62925U 25027U   26068.56403198  .00013584  00000+0  50229-3 0  9999
2 62925  42.9989 129.5276 0001537 249.7084 110.3602 15.27576566 61526
